GLOBALSTAR M084         
1 38040U 11080A   23316.93689292 -.00000086  00000+0  10191-3 0  9997
2 38040  52.0031  21.0566 0000533 144.0620  36.0928 12.62267546549137
GLOBALSTAR M080         
1 38041U 11080B   23316.90846527 -.00000085  00000+0  10387-3 0  9997
2 38041  52.0086  22.5453 0000746 144.0423  26.9569 12.62266039549254
GLOBALSTAR M082         
1 38042U 11080C   23316.84253454 -.00000084  00000+0  10974-3 0  9993
2 38042  52.0094 338.1306 0000708  19.8435 152.6032 12.62267886549957
GLOBALSTAR M092         
1 38043U 11080D   23316.62250229 -.00000124  00000+0 -11266-3 0  9998
2 38043  52.0091  69.1408 0000602 150.0198 222.8176 12.62262518548388
GLOBALSTAR M090         
1 38044U 11080E   23317.07230064 -.00000082  00000+0  12418-3 0  9996
2 38044  51.9901 331.9888 0000519  49.0132 328.8898 12.62263428550147
GLOBALSTAR M086         
1 38045U 11080F   23316.81593750 -.00000082  00000+0  12293-3 0  9993
2 38045  51.9914 333.2768 0001261 100.0027  71.3451 12.62264233550016
GLOBALSTAR M097         
1 39072U 13005A   23316.48799885 -.00000100  00000+0  18725-4 0  9991
2 39072  52.0048 248.2295 0001030  59.4865 300.6104 12.62272479497304
GLOBALSTAR M093         
1 39073U 13005B   23317.09498646 -.00000082  00000+0  12064-3 0  9999
2 39073  51.9810 240.6166 0001313  62.3075 297.7924 12.62268684497379
